EUTELSAT KONNECT        
1 45027U 20005B   25200.55739789  .00000053  00000+0  00000+0 0  9993
2 45027   0.0602  90.5845 0000819 136.9017 277.9610  1.00267418 20984
EUTELSAT QUANTUM        
1 49056U 21069B   25200.93011140  .00000128  00000+0  00000+0 0  9999
2 49056   0.0100  34.0473 0001716 103.3878 183.0490  1.00272849 14590
EUTELSAT KONNECT VHTS   
1 53765U 22110A   25200.87683803  .00000020  00000+0  00000+0 0  9994
2 53765   0.0501  94.8266 0002351  34.8077 126.6251  1.00270418  3491
EUTELSAT HOTBIRD 13F    
1 54048U 22134A   25200.77283897  .00000090  00000+0  00000+0 0  9990
2 54048   0.0674 284.7817 0001640  71.5153 232.7297  1.00269741 10047
EUTELSAT HOTBIRD 13G    
1 54225U 22146A   25200.77283897  .00000090  00000+0  00000+0 0  9990
2 54225   0.0594 237.5105 0002266 303.9976  47.4786  1.00271383  4133
EUTELSAT 10B            
1 54259U 22157A   25201.05776704  .00000070  00000+0  00000+0 0  9993
2 54259   0.0508  92.5350 0001478  43.0121 193.2853  1.00269098  9718
EUTELSAT 36D            
1 59346U 24059A   25201.06294741  .00000158  00000+0  00000+0 0  9992
2 59346   0.0172  38.6090 0000285 178.5407 139.4641  1.00271174  4816
